{"fetched_at":"2026-06-06T13:27:30Z","count":1118,"tles":[{"name":"SENTINEL-2B","line1":"1 42063U 17013A   26157.15852481  .00000241  00000+0  10841-3 0  9995","line2":"2 42063  98.5689 232.0880 0001226  84.2600 275.8723 14.30814337483065","category":"Other"},{"name":"GAOFEN-11 01","line1":"1 43585U 18063A   26157.17020868  .00015766  00000+0  23674-3 0  9995","line2":"2 43585  97.1294 224.0821 0004352  35.5930 324.5614 15.54961935438634","category":"Other"},{"name":"CARTOSAT-2D","line1":"1 41948U 17008A   26156.63246799 -.00002160  00000+0 -99469-4 0  9999","line2":"2 41948  97.4122 216.1531 0003727 285.1069  74.9753 15.19236200515827","category":"Other"},{"name":"FORMOSAT-5","line1":"1 42920U 17049A   26156.94978771  .00000217  00000+0  65932-4 0  9998","line2":"2 42920  98.2253 232.5090 0012612 115.3801 244.8702 14.50894706465040","category":"Other"},{"name":"SENTINEL-3B","line1":"1 43437U 18039A   26156.47801780  .00000122  00000+0  68428-4 0  9993","line2":"2 43437  98.6250 224.1778 0000937  75.1452 284.9833 14.26738325422452","category":"Other"},{"name":"SKYSAT-C3","line1":"1 41774U 16058E   26156.34646874  .00019999  00000+0  33339-3 0  9995","line2":"2 41774  96.9013 187.6532 0002078  80.7564 279.3925 15.52014879544273","category":"Other"},{"name":"SKYSAT-C10","line1":"1 42988U 17068B   26156.81573208  .00011585  00000+0  34957-3 0  9997","line2":"2 42988  97.4497 293.5548 0001303  89.7348 270.4044 15.34439852480619","category":"Other"},{"name":"SKYSAT-C2","line1":"1 41773U 16058D   26156.77280011  .00015365  00000+0  36430-3 0  9996","line2":"2 41773  97.0171 179.2995 0005205  94.6051 265.5792 15.41804845543297","category":"Other"},{"name":"SKYSAT-C11","line1":"1 42987U 17068A   26156.68612958  .00034798  00000+0  47730-3 0  9991","line2":"2 42987  97.4346 305.0223 0001130  88.7015 271.4369 15.57282640481458","category":"Other"},{"name":"SKYSAT-C9","line1":"1 42989U 17068C   26156.35903169  .00012142  00000+0  29359-3 0  9990","line2":"2 42989  97.4417 293.9166 0008789 171.3348 188.8052 15.41256736480937","category":"Other"},{"name":"SKYSAT-C8","line1":"1 42990U 17068D   26156.34845036  .00009599  00000+0  26974-3 0  9991","line2":"2 42990  97.4515 292.8380 0001593  99.3532 260.7892 15.36733367480491","category":"Other"},{"name":"SKYSAT-C7","line1":"1 42991U 17068E   26156.86260558  .00014103  00000+0  39522-3 0  9999","line2":"2 42991  97.4524 294.3478 0006897 139.8054 220.3701 15.36695563480630","category":"Other"},{"name":"SKYSAT-C4","line1":"1 41771U 16058B   26156.31181551  .00015661  00000+0  29904-3 0  9990","line2":"2 41771  96.9178 178.5840 0000971  78.7321 281.4039 15.48200882543636","category":"Other"},{"name":"SKYSAT-C6","line1":"1 42992U 17068F   26156.86259979  .00011891  00000+0  36358-3 0  9990","line2":"2 42992  97.4555 294.3585 0003907 168.8900 191.2430 15.34010702480588","category":"Other"},{"name":"SKYSAT-C5","line1":"1 41772U 16058C   26156.36519479  .00007470  00000+0  22720-3 0  9998","line2":"2 41772  97.0473 197.5342 0002436  14.9757 345.1558 15.34293561541934","category":"Other"},{"name":"SENTINEL-5P","line1":"1 42969U 17064A   26156.85362773  .00000070  00000+0  54230-4 0  9993","line2":"2 42969  98.7922  99.0658 0000979  80.7494 279.3792 14.19517039447951","category":"Other"},{"name":"GAOFEN-6","line1":"1 43484U 18048A   26157.16110535  .00000971  00000+0  14590-3 0  9995","line2":"2 43484  97.7759 220.2492 0011170 204.8182 155.2492 14.76621003431764","category":"Other"},{"name":"GAOFEN-3","line1":"1 41727U 16049A   26157.19162134  .00000051  00000+0  28558-4 0  9996","line2":"2 41727  98.4012 165.1438 0001170  96.9240 263.2083 14.42214127517065","category":"Other"}]}