OBJECT_NAME,OBJECT_ID,EPOCH,MEAN_MOTION,ECCENTRICITY,INCLINATION,RA_OF_ASC_NODE,ARG_OF_PERICENTER,MEAN_ANOMALY,EPHEMERIS_TYPE,CLASSIFICATION_TYPE,NORAD_CAT_ID,ELEMENT_SET_NO,REV_AT_EPOCH,BSTAR,MEAN_MOTION_DOT,MEAN_MOTION_DDOT
GAOFEN-3,2016-049A,2026-06-06T04:35:56.083776,14.42214127,.000117,98.4012,165.1438,96.9240,263.2083,0,U,41727,999,51706,.28558E-4,.51E-6,0
SKYSAT-C4,2016-058B,2026-06-05T07:29:00.860064,15.48200882,.00009713,96.9178,178.5840,78.7321,281.4039,0,U,41771,999,54363,.29904111E-3,.15661E-3,0
SKYSAT-C5,2016-058C,2026-06-05T08:45:52.829856,15.34293561,.00024368,97.0473,197.5342,14.9757,345.1558,0,U,41772,999,54193,.22720104E-3,.747E-4,0
SKYSAT-C2,2016-058D,2026-06-05T18:32:49.929504,15.41804845,.00052059,97.0171,179.2995,94.6051,265.5792,0,U,41773,999,54329,.36429803E-3,.15365E-3,0
SKYSAT-C3,2016-058E,2026-06-05T08:18:54.899136,15.52014879,.00020783,96.9013,187.6532,80.7564,279.3925,0,U,41774,999,54427,.33338845E-3,.19999E-3,0
CARTOSAT-2D,2017-008A,2026-06-05T15:10:45.234336,15.19236200,.00037278,97.4122,216.1531,285.1069,74.9753,0,U,41948,999,51582,-.99469042E-4,-.216E-4,0
SENTINEL-2B,2017-013A,2026-06-06T03:48:16.543584,14.30814337,.0001226,98.5689,232.0880,84.2600,275.8723,0,U,42063,999,48306,.10841E-3,.241E-5,0
FORMOSAT-5,2017-049A,2026-06-05T22:47:41.658144,14.50894706,.0012612,98.2253,232.5090,115.3801,244.8702,0,U,42920,999,46504,.65932E-4,.217E-5,0
SENTINEL-5P,2017-064A,2026-06-05T20:29:13.435872,14.19517039,.0000979,98.7922,99.0658,80.7494,279.3792,0,U,42969,999,44795,.5423E-4,.7E-6,0
SKYSAT-C11,2017-068A,2026-06-05T16:28:01.595712,15.57282640,.000113,97.4346,305.0223,88.7015,271.4369,0,U,42987,999,48145,.4773E-3,.34798E-3,0
SKYSAT-C10,2017-068B,2026-06-05T19:34:39.251712,15.34439852,.0001303,97.4497,293.5548,89.7348,270.4044,0,U,42988,999,48061,.34957E-3,.11585E-3,0
SKYSAT-C9,2017-068C,2026-06-05T08:37:00.338016,15.41256736,.00087896,97.4417,293.9166,171.3348,188.8052,0,U,42989,999,48093,.29358857E-3,.12142E-3,0
SKYSAT-C8,2017-068D,2026-06-05T08:21:46.111104,15.36733367,.00015936,97.4515,292.8380,99.3532,260.7892,0,U,42990,999,48049,.26974365E-3,.9599E-4,0
SKYSAT-C7,2017-068E,2026-06-05T20:42:09.122112,15.36695563,.0006897,97.4524,294.3478,139.8054,220.3701,0,U,42991,999,48063,.39522E-3,.14103E-3,0
SKYSAT-C6,2017-068F,2026-06-05T20:42:08.621856,15.34010702,.0003907,97.4555,294.3585,168.8900,191.2430,0,U,42992,999,48058,.36358E-3,.11891E-3,0
SENTINEL-3B,2018-039A,2026-06-05T11:28:20.737920,14.26738325,.00009372,98.6250,224.1778,75.1452,284.9833,0,U,43437,999,42245,.68428198E-4,.122E-5,0
GAOFEN-6,2018-048A,2026-06-06T03:51:59.502240,14.76621003,.001117,97.7759,220.2492,204.8182,155.2492,0,U,43484,999,43176,.1459E-3,.971E-5,0
GAOFEN-11 01,2018-063A,2026-06-06T04:05:06.029952,15.54961935,.0004352,97.1294,224.0821,35.5930,324.5614,0,U,43585,999,43863,.23674E-3,.15766E-3,0
